CTC2_L_00325016-03
1 30287U 23059MT  26037.47793981  .00000000  00000+0  00000-0 0  9994
2 30287  40.0000 180.0000 0000000   0.0000   0.0000 13.56072426    12
CTC2_L_00325016-04
1 30288U 26006VP  26037.47793981  .00000000  00000+0  00000-0 0  9990
2 30288  40.0000 180.0000 0000000   0.0000  90.0000 13.56072426    12
CTC2_L_00325017-01
1 30289U 25561QU  26037.47793981  .00000000  00000+0  00000-0 0  9996
2 30289  40.0000 192.0000 0000000   0.0000 192.0000 13.56072426    19
CTC2_L_00325017-02
1 30290U 26849FV  26037.47793981  .00000000  00000+0  00000-0 0  9998
2 30290  40.0000 192.0000 0000000   0.0000 282.0000 13.56072426    11
CTC2_L_00325017-03
1 30291U 26271WC  26037.47793981  .00000000  00000+0  00000-0 0  9998
2 30291  40.0000 192.0000 0000000   0.0000  12.0000 13.56072426    13
CTC2_L_00325017-04
1 30292U 26141RQ  26037.47793981  .00000000  00000+0  00000-0 0  9995
2 30292  40.0000 192.0000 0000000   0.0000 102.0000 13.56072426    14
CTC2_L_00325018-01
1 30293U 23599JD  26037.47793981  .00000000  00000+0  00000-0 0  9990
2 30293  40.0000 204.0000 0000000   0.0000 204.0000 13.56072426    12
CTC2_L_00325018-02
1 30294U 24851NL  26037.47793981  .00000000  00000+0  00000-0 0  9993
2 30294  40.0000 204.0000 0000000   0.0000 294.0000 13.56072426    12
CTC2_L_00325018-03
1 30295U 25137AV  26037.47793981  .00000000  00000+0  00000-0 0  9992
2 30295  40.0000 204.0000 0000000   0.0000  24.0000 13.56072426    14
CTC2_L_00325018-04
1 30296U 24542SS  26037.47793981  .00000000  00000+0  00000-0 0  9992
2 30296  40.0000 204.0000 0000000   0.0000 114.0000 13.56072426    15
CTC2_L_00325019-01
1 30297U 26719HR  26037.47793981  .00000000  00000+0  00000-0 0  9991
2 30297  40.0000 216.0000 0000000   0.0000 216.0000 13.56072426    12
CTC2_L_00325019-02
1 30298U 22620KC  26037.47793981  .00000000  00000+0  00000-0 0  9999
2 30298  40.0000 216.0000 0000000   0.0000 306.0000 13.56072426    13
CTC2_L_00325019-03
1 30299U 23140NZ  26037.47793981  .00000000  00000+0  00000-0 0  9998
2 30299  40.0000 216.0000 0000000   0.0000  36.0000 13.56072426    14
CTC2_L_00325019-04
1 30300U 26036YK  26037.47793981  .00000000  00000+0  00000-0 0  9998
2 30300  40.0000 216.0000 0000000   0.0000 126.0000 13.56072426    17
CTC2_L_00325020-01
1 30301U 24446YD  26037.47793981  .00000000  00000+0  00000-0 0  9992
2 30301  40.0000 228.0000 0000000   0.0000 228.0000 13.56072426    14
CTC2_L_00325020-02
1 30302U 24355YM  26037.47793981  .00000000  00000+0  00000-0 0  9992
2 30302  40.0000 228.0000 0000000   0.0000 318.0000 13.56072426    15
CTC2_L_00325020-03
1 30303U 26903VX  26037.47793981  .00000000  00000+0  00000-0 0  9994
2 30303  40.0000 228.0000 0000000   0.0000  48.0000 13.56072426    16
CTC2_L_00325020-04
1 30304U 25361BL  26037.47793981  .00000000  00000+0  00000-0 0  9992
2 30304  40.0000 228.0000 0000000   0.0000 138.0000 13.56072426    17
CTC2_L_00325021-01
1 30305U 26311P   26037.47793981  .00000000  00000+0  00000-0 0  9999
2 30305  40.0000 240.0000 0000000   0.0000 240.0000 13.56072426    16
CTC2_L_00325021-02
1 30306U 25557YS  26037.47793981  .00000000  00000+0  00000-0 0  9991
2 30306  40.0000 240.0000 0000000   0.0000 330.0000 13.56072426    17
CTC2_L_00325021-03
1 30307U 26382CK  26037.47793981  .00000000  00000+0  00000-0 0  9999
2 30307  40.0000 240.0000 0000000   0.0000  60.0000 13.56072426    18
CTC2_L_00325021-04
1 30308U 26287FS  26037.47793981  .00000000  00000+0  00000-0 0  9994
2 30308  40.0000 240.0000 0000000   0.0000 150.0000 13.56072426    19
CTC2_L_00325022-01
1 30309U 24411JT  26037.47793981  .00000000  00000+0  00000-0 0  9992
2 30309  40.0000 252.0000 0000000   0.0000 252.0000 13.56072426    16
CTC2_L_00325022-02
1 30310U 26113UL  26037.47793981  .00000000  00000+0  00000-0 0  9995
2 30310  40.0000 252.0000 0000000   0.0000 342.0000 13.56072426    18
CTC2_L_00325022-03
1 30311U 22004BA  26037.47793981  .00000000  00000+0  00000-0 0  9991
2 30311  40.0000 252.0000 0000000   0.0000  72.0000 13.56072426    19
CTC2_L_00325022-04
1 30312U 26397SK  26037.47793981  .00000000  00000+0  00000-0 0  9991
2 30312  40.0000 252.0000 0000000   0.0000 162.0000 13.56072426    10
CTC2_L_00325023-01
1 30313U 25303NU  26037.47793981  .00000000  00000+0  00000-0 0  9998
2 30313  40.0000 264.0000 0000000   0.0000 264.0000 13.56072426    17
CTC2_L_00325023-02
1 30314U 26446NG  26037.47793981  .00000000  00000+0  00000-0 0  9998
2 30314  40.0000 264.0000 0000000   0.0000 354.0000 13.56072426    18
CTC2_L_00325023-03
1 30315U 26014KA  26037.47793981  .00000000  00000+0  00000-0 0  9990
2 30315  40.0000 264.0000 0000000   0.0000  84.0000 13.56072426    19
CTC2_L_00325023-04
1 30316U 25370GE  26037.47793981  .00000000  00000+0  00000-0 0  9995
2 30316  40.0000 264.0000 0000000   0.0000 174.0000 13.56072426    10
CTC2_L_00325024-01
1 30317U 23899IG  26037.47793981  .00000000  00000+0  00000-0 0  9990
2 30317  40.0000 276.0000 0000000   0.0000 276.0000 13.56072426    17
CTC2_L_00325024-02
1 30318U 24689VB  26037.47793981  .00000000  00000+0  00000-0 0  9999
2 30318  40.0000 276.0000 0000000   0.0000   6.0000 13.56072426    19
CTC2_L_00325024-03
1 30319U 24650ED  26037.47793981  .00000000  00000+0  00000-0 0  9998
2 30319  40.0000 276.0000 0000000   0.0000  96.0000 13.56072426    19
CTC2_L_00325024-04
1 30320U 22230US  26037.47793981  .00000000  00000+0  00000-0 0  9992
2 30320  40.0000 276.0000 0000000   0.0000 186.0000 13.56072426    11
CTC2_L_00325025-01
1 30321U 22788CG  26037.47793981  .00000000  00000+0  00000-0 0  9991
2 30321  40.0000 288.0000 0000000   0.0000 288.0000 13.56072426    18
CTC2_L_00325025-02
1 30322U 23074IL  26037.47793981  .00000000  00000+0  00000-0 0  9991
2 30322  40.0000 288.0000 0000000   0.0000  18.0000 13.56072426    10
CTC2_L_00325025-03
1 30323U 23199JD  26037.47793981  .00000000  00000+0  00000-0 0  9990
2 30323  40.0000 288.0000 0000000   0.0000 108.0000 13.56072426    11
CTC2_L_00325025-04
1 30324U 26961VA  26037.47793981  .00000000  00000+0  00000-0 0  9991
2 30324  40.0000 288.0000 0000000   0.0000 198.0000 13.56072426    11
CTC2_L_00325026-01
1 30325U 24642JA  26037.47793981  .00000000  00000+0  00000-0 0  9996
2 30325  40.0000 300.0000 0000000   0.0000 300.0000 13.56072426    12
CTC2_L_00325026-02
1 30326U 22113LF  26037.47793981  .00000000  00000+0  00000-0 0  9998
2 30326  40.0000 300.0000 0000000   0.0000  30.0000 13.56072426    13
CTC2_L_00325026-03
1 30327U 25625HN  26037.47793981  .00000000  00000+0  00000-0 0  9990
2 30327  40.0000 300.0000 0000000   0.0000 120.0000 13.56072426    14
CTC2_L_00325026-04
1 30328U 25725CN  26037.47793981  .00000000  00000+0  00000-0 0  9992
2 30328  40.0000 300.0000 0000000   0.0000 210.0000 13.56072426    15
CTC2_L_00325027-01
1 30329U 23246GO  26037.47793981  .00000000  00000+0  00000-0 0  9999
2 30329  40.0000 312.0000 0000000   0.0000 312.0000 13.56072426    12
CTC2_L_00325027-02
1 30330U 26243CC  26037.47793981  .00000000  00000+0  00000-0 0  9991
2 30330  40.0000 312.0000 0000000   0.0000  42.0000 13.56072426    14
CTC2_L_00325027-03
1 30331U 24092OL  26037.47793981  .00000000  00000+0  00000-0 0  9992
2 30331  40.0000 312.0000 0000000   0.0000 132.0000 13.56072426    15
CTC2_L_00325027-04
1 30332U 23696HO  26037.47793981  .00000000  00000+0  00000-0 0  9992
2 30332  40.0000 312.0000 0000000   0.0000 222.0000 13.56072426    16
CTC2_L_00325028-01
1 30333U 24709BO  26037.47793981  .00000000  00000+0  00000-0 0  9999
2 30333  40.0000 324.0000 0000000   0.0000 324.0000 13.56072426    13
CTC2_L_00325028-02
1 30334U 24977TN  26037.47793981  .00000000  00000+0  00000-0 0  9997
2 30334  40.0000 324.0000 0000000   0.0000  54.0000 13.56072426    14
CTC2_L_00325028-03
1 30335U 24661VQ  26037.47793981  .00000000  00000+0  00000-0 0  9998
2 30335  40.0000 324.0000 0000000   0.0000 144.0000 13.56072426    15
CTC2_L_00325028-04
1 30336U 26040HH  26037.47793981  .00000000  00000+0  00000-0 0  9992
2 30336  40.0000 324.0000 0000000   0.0000 234.0000 13.56072426    16
CTC2_L_00325029-01
1 30337U 22305OJ  26037.47793981  .00000000  00000+0  00000-0 0  9993
2 30337  40.0000 336.0000 0000000   0.0000 336.0000 13.56072426    13
CTC2_L_00325029-02
1 30338U 24249FS  26037.47793981  .00000000  00000+0  00000-0 0  9993
2 30338  40.0000 336.0000 0000000   0.0000  66.0000 13.56072426    14
CTC2_L_00325029-03
1 30339U 22926IA  26037.47793981  .00000000  00000+0  00000-0 0  9994
2 30339  40.0000 336.0000 0000000   0.0000 156.0000 13.56072426    15
CTC2_L_00325029-04
1 30340U 26951PB  26037.47793981  .00000000  00000+0  00000-0 0  9998
2 30340  40.0000 336.0000 0000000   0.0000 246.0000 13.56072426    17
CTC2_L_00325030-01
1 30341U 22349NW  26037.47793981  .00000000  00000+0  00000-0 0  9996
2 30341  40.0000 348.0000 0000000   0.0000 348.0000 13.56072426    14
CTC2_L_00325030-02
1 30342U 24309DX  26037.47793981  .00000000  00000+0  00000-0 0  9995
2 30342  40.0000 348.0000 0000000   0.0000  78.0000 13.56072426    15
CTC2_L_00325030-03
1 30343U 22484GB  26037.47793981  .00000000  00000+0  00000-0 0  9998
2 30343  40.0000 348.0000 0000000   0.0000 168.0000 13.56072426    16
CTC2_L_00325030-04
1 30344U 24817DK  26037.47793981  .00000000  00000+0  00000-0 0  9991
2 30344  40.0000 348.0000 0000000   0.0000 258.0000 13.56072426    17
